OBJECT_NAME,OBJECT_ID,EPOCH,MEAN_MOTION,ECCENTRICITY,INCLINATION,RA_OF_ASC_NODE,ARG_OF_PERICENTER,MEAN_ANOMALY,EPHEMERIS_TYPE,CLASSIFICATION_TYPE,NORAD_CAT_ID,ELEMENT_SET_NO,REV_AT_EPOCH,BSTAR,MEAN_MOTION_DOT,MEAN_MOTION_DDOT
ONEWEB-0246,2021-045V,2026-07-06T06:25:38.640576,13.15547521,.00019431,87.9003,255.3879,100.3493,259.7856,0,U,48786,999,24678,.15748179E-3,.72E-6,0
ONEWEB-0210,2021-045W,2026-07-07T12:51:01.177056,13.15548655,.0001543,87.9001,255.1328,121.0481,239.0801,0,U,48787,999,24699,.19099E-3,.85E-6,0
ONEWEB-0214,2021-045X,2026-07-07T03:55:56.068896,13.15547616,.0001703,87.9000,255.2038,97.3385,262.7939,0,U,48788,999,24691,-.65663E-3,-.234E-5,0
ONEWEB-0221,2021-045Y,2026-07-07T04:06:14.088960,13.15547770,.0002075,87.9000,255.2108,105.4295,254.7065,0,U,48789,999,24700,.48594E-3,.196E-5,0
ONEWEB-0213,2021-045Z,2026-07-07T03:50:15.660672,13.15548187,.0001971,87.9000,255.2160,107.5034,252.6312,0,U,48790,999,24706,.16372E-3,.74E-6,0
ONEWEB-0212,2021-045AA,2026-07-07T03:17:08.725056,13.15547103,.000211,87.9001,255.2149,98.8870,261.2499,0,U,48791,999,24705,-.29057E-3,-.97E-6,0
ONEWEB-0227,2021-045AB,2026-07-06T05:21:45.339552,13.15547900,.0002065,87.9001,255.3973,101.4821,258.6541,0,U,48792,999,24688,-.39233312E-3,-.135E-5,0
ONEWEB-0226,2021-045AC,2026-07-07T03:06:53.742816,13.15547617,.0001895,87.8999,255.2212,105.0025,255.1315,0,U,48793,999,24697,-.16329E-3,-.49E-6,0
ONEWEB-0224,2021-045AD,2026-07-07T04:03:57.328128,13.15548306,.0002923,87.8990,255.2463,106.0802,254.0650,0,U,48794,999,24690,.46763E-3,.189E-5,0
ONEWEB-0233,2021-045AE,2026-07-07T11:28:41.823840,13.15550239,.000217,87.8989,255.1920,107.0018,253.1350,0,U,48795,999,24696,.46866E-3,.189E-5,0
ONEWEB-0190,2021-045AF,2026-07-07T03:52:32.487168,13.15548198,.000201,87.8996,255.2181,118.6832,241.4501,0,U,48796,999,24699,.12867E-3,.61E-6,0
ONEWEB-0236,2021-045AG,2026-07-06T04:33:51.065568,13.15548146,.00021655,87.8991,255.4202,96.9389,263.1988,0,U,48797,999,24675,.24351276E-3,.105E-5,0
ONEWEB-0248,2021-045AH,2026-07-06T04:52:05.941920,13.15548479,.00022575,87.9002,255.4030,110.9773,249.1599,0,U,48798,999,24691,.15672552E-4,.19E-6,0
ONEWEB-0225,2021-045AJ,2026-07-07T03:18:18.868896,13.15548084,.000204,87.8996,255.2243,115.0793,245.0549,0,U,48799,999,24704,-.32762E-3,-.111E-5,0
ONEWEB-0215,2021-045AK,2026-07-06T04:40:41.334240,13.15549030,.0002143,87.9004,255.3956,118.0270,242.1077,0,U,48800,999,24679,.31957041E-3,.133E-5,0
ONEWEB-0216,2021-045AL,2026-07-07T04:38:10.506624,13.15548045,.0002,87.9001,255.2109,97.2169,262.9189,0,U,48801,999,24693,.18659E-3,.83E-6,0
ONEWEB-0239,2021-045AM,2026-07-07T04:45:01.171872,13.15547750,.0002457,87.8988,255.2144,117.0593,243.0788,0,U,48802,999,24697,.10996E-3,.54E-6,0
ONEWEB-0249,2021-060A,2026-07-06T14:01:05.326752,13.16596447,.0002165,87.9082,224.9253,97.1179,263.0199,0,U,48967,999,24216,-.88814E-4,-.21E-6,0
ONEWEB-0250,2021-060B,2026-07-06T15:03:16.552224,13.25835145,.0003136,87.9083,222.6098,94.5527,265.5968,0,U,48968,999,24279,-.76686E-4,-.2E-6,0
ONEWEB-0252,2021-060D,2026-07-06T14:45:34.958880,13.16594936,.0001837,87.9080,224.9117,95.0582,265.0759,0,U,48970,999,24221,.45951E-4,.3E-6,0
ONEWEB-0253,2021-060E,2026-07-06T14:29:37.493088,13.16594853,.0002167,87.9078,224.9194,96.6238,263.5140,0,U,48971,999,24214,.35768E-4,.27E-6,0
ONEWEB-0254,2021-060F,2026-07-07T01:39:55.017792,13.16593224,.0002229,87.9082,224.8248,102.4404,257.6977,0,U,48972,999,24220,-.11407E-3,-.31E-6,0
ONEWEB-0255,2021-060G,2026-07-07T00:45:11.848896,13.16593957,.0002111,87.9083,224.8385,99.7646,260.3724,0,U,48973,999,24227,.85176E-4,.45E-6,0
ONEWEB-0256,2021-060H,2026-07-06T14:26:12.254208,13.16594501,.0002021,87.9077,224.9273,91.9961,268.1402,0,U,48974,999,24218,-.12854E-3,-.36E-6,0
ONEWEB-0257,2021-060J,2026-07-06T15:12:56.267712,13.16593131,.0001975,87.9081,224.9087,98.0506,262.0849,0,U,48975,999,24214,.39911E-4,.28E-6,0
ONEWEB-0258,2021-060K,2026-07-06T15:15:13.229856,13.16594077,.000212,87.9082,224.9206,95.8060,264.3312,0,U,48976,999,24215,.15073E-3,.7E-6,0
ONEWEB-0259,2021-060L,2026-07-07T02:02:42.834336,13.16593216,.0002203,87.9079,224.8302,98.5431,261.5950,0,U,48977,999,24224,.14756E-3,.69E-6,0
ONEWEB-0260,2021-060M,2026-07-07T01:50:09.669984,13.16594744,.00017,87.9075,224.8326,89.9349,270.1977,0,U,48978,999,24222,.5932E-4,.36E-6,0
ONEWEB-0261,2021-060N,2026-07-06T15:59:40.907616,13.16593356,.0001946,87.9080,224.9147,103.5143,256.6205,0,U,48979,999,24222,-.29984E-3,-.102E-5,0
ONEWEB-0262,2021-060P,2026-07-07T00:38:21.353856,13.16593653,.0002306,87.9083,224.8294,98.7508,261.3884,0,U,48980,999,24223,.2117E-3,.94E-6,0
ONEWEB-0263,2021-060Q,2026-07-06T14:27:20.141280,13.16593766,.0002043,87.9081,224.9257,104.6037,255.5321,0,U,48981,999,24214,-.10269E-3,-.26E-6,0
ONEWEB-0264,2021-060R,2026-07-07T02:17:30.322176,13.16596703,.0001882,87.9075,224.8301,98.0786,262.0558,0,U,48982,999,24221,.20644E-3,.92E-6,0
ONEWEB-0266,2021-060T,2026-07-06T15:51:41.683104,13.16595450,.0002147,87.9083,224.9071,92.8813,267.2564,0,U,48984,999,24214,-.19315E-3,-.61E-6,0
ONEWEB-0267,2021-060U,2026-07-06T14:18:13.262112,13.16593724,.0001964,87.9082,224.9172,99.8631,260.2722,0,U,48985,999,24214,-.17971E-3,-.56E-6,0
ONEWEB-0268,2021-060V,2026-07-07T02:18:40.180032,13.16593408,.0001964,87.9082,224.8270,92.3468,267.7888,0,U,48986,999,24247,.17367E-3,.79E-6,0
ONEWEB-0269,2021-060W,2026-07-07T01:51:18.772704,13.16592884,.0002017,87.9075,224.8317,88.9366,271.1996,0,U,48987,999,24224,.53437E-4,.33E-6,0
ONEWEB-0270,2021-060X,2026-07-07T02:16:23.705184,13.16593725,.0002224,87.9084,224.8295,104.0590,256.0789,0,U,48988,999,24228,.23704E-3,.103E-5,0
ONEWEB-0271,2021-060Y,2026-07-07T01:58:09.410304,13.16593284,.0002018,87.9078,224.8214,102.0952,258.0405,0,U,48989,999,24228,.43605E-4,.3E-6,0
ONEWEB-0272,2021-060Z,2026-07-07T00:40:38.633088,13.16595525,.0001769,87.9075,224.8433,95.2915,264.8418,0,U,48990,999,24222,.19229E-3,.86E-6,0
ONEWEB-0273,2021-060AA,2026-07-06T14:15:56.231712,13.16593768,.0002107,87.9081,224.9298,98.7395,261.3975,0,U,48991,999,24214,-.12934E-3,-.37E-6,0
ONEWEB-0274,2021-060AB,2026-07-07T01:49:01.565184,13.16594405,.0001747,87.9071,224.8347,92.9259,267.2072,0,U,48992,999,24224,.99607E-4,.51E-6,0
ONEWEB-0275,2021-060AC,2026-07-07T01:33:04.239360,13.16595199,.0001973,87.9081,224.8279,96.1703,263.9653,0,U,48993,999,24217,-.59659E-4,-.1E-6,0
ONEWEB-0276,2021-060AD,2026-07-07T04:10:23.410848,13.16593410,.0001903,87.9082,224.8052,93.3517,266.7831,0,U,48994,999,24220,.2655E-3,.114E-5,0
ONEWEB-0277,2021-060AE,2026-07-07T00:49:46.345152,13.16594865,.0002083,87.9078,224.8405,99.5011,260.6355,0,U,48995,999,24217,.13282E-3,.64E-6,0
ONEWEB-0278,2021-060AF,2026-07-07T02:25:30.929952,13.16593763,.0002255,87.9081,224.8191,91.3886,268.7503,0,U,48996,999,24231,.16733E-3,.77E-6,0
ONEWEB-0279,2021-060AG,2026-07-06T15:40:17.968800,13.16593929,.0001914,87.9083,224.9060,100.4215,259.7132,0,U,48997,999,24218,-.5959E-4,-.1E-6,0
ONEWEB-0280,2021-060AH,2026-07-06T14:12:31.355712,13.16594545,.0002395,87.9082,224.9225,99.0421,261.0981,0,U,48998,999,24211,-.11377E-3,-.31E-6,0
ONEWEB-0281,2021-060AJ,2026-07-06T14:20:29.834592,13.16593108,.0002135,87.9082,224.9169,93.8493,266.2882,0,U,48999,999,24218,-.90038E-4,-.22E-6,0
ONEWEB-0282,2021-060AK,2026-07-07T02:00:26.183232,13.16594409,.000214,87.9078,224.8280,99.0693,261.0680,0,U,49000,999,24222,.10806E-3,.54E-6,0
ONEWEB-0283,2021-060AL,2026-07-07T01:44:27.686688,13.16593034,.0001969,87.9078,224.8297,98.8153,261.3201,0,U,49001,999,24223,.9216E-4,.48E-6,0
ONEWEB-0284,2021-060AM,2026-07-06T14:38:44.742048,13.16593553,.0002388,87.9080,224.9153,95.6619,264.4784,0,U,49002,999,24215,.35284E-4,.26E-6,0
ONEWEB-0285,2021-075A,2026-07-07T09:58:28.234848,13.12444483,.0001811,87.8964,346.6396,87.0634,273.0702,0,U,49075,999,23786,.63781E-3,.242E-5,0
ONEWEB-0286,2021-075B,2026-07-07T09:32:38.160096,13.12442710,.0001817,87.8952,346.6581,87.6624,272.4712,0,U,49076,999,23721,-.88459E-3,-.306E-5,0
ONEWEB-0287,2021-075C,2026-07-07T10:35:54.250368,13.17647767,.0002061,87.9136,1.8356,80.5509,279.5856,0,U,49077,999,23629,.12766E-4,.18E-6,0
ONEWEB-0288,2021-075D,2026-07-07T08:58:40.473120,13.12440871,.0002022,87.8961,346.6408,89.0690,271.0670,0,U,49078,999,23783,-.82034E-4,-.17E-6,0
ONEWEB-0289,2021-075E,2026-07-07T11:31:40.664064,13.17624438,.0002131,87.9144,1.8462,99.1235,261.0137,0,U,49079,999,23687,-.50571E-2,-.1949E-4,0
ONEWEB-0290,2021-075F,2026-07-07T10:52:56.065152,13.17649620,.0002278,87.9145,1.8236,99.5790,260.5599,0,U,49080,999,23628,.21812E-4,.21E-6,0
ONEWEB-0291,2021-075G,2026-07-07T10:31:03.580032,13.17646449,.0002211,87.9139,1.8327,87.2352,272.9033,0,U,49081,999,23627,-.70143E-4,-.14E-6,0
ONEWEB-0293,2021-075H,2026-07-07T11:07:30.321696,13.17649625,.0002019,87.9139,1.8310,93.3947,266.7415,0,U,49082,999,23630,.76477E-4,.43E-6,0
ONEWEB-0294,2021-075J,2026-07-07T09:08:26.369664,13.12441896,.0002138,87.8962,346.6436,99.3384,260.7986,0,U,49083,999,23722,-.66379E-3,-.226E-5,0
ONEWEB-0295,2021-075K,2026-07-07T11:06:17.921088,13.17649494,.0002097,87.9138,1.8350,84.8985,275.2386,0,U,49084,999,23626,.84091E-4,.46E-6,0
ONEWEB-0296,2021-075L,2026-07-07T10:28:57.503424,13.12442119,.0002089,87.8969,346.6406,86.2577,273.8791,0,U,49085,999,23723,.10218E-2,.38E-5,0
ONEWEB-0297,2021-075M,2026-07-06T22:24:22.896576,13.12442807,.0001895,87.8950,346.7489,91.1986,268.9360,0,U,49086,999,23777,-.10516E-2,-.366E-5,0
ONEWEB-0298,2021-075N,2026-07-07T11:12:35.434656,13.17648504,.0001782,87.9139,1.8326,88.3215,271.8120,0,U,49087,999,23629,.83425E-4,.45E-6,0
ONEWEB-0299,2021-075P,2026-07-07T11:14:47.357088,13.17647313,.0001912,87.9150,1.8141,85.8790,274.2560,0,U,49088,999,23627,.10379E-3,.53E-6,0
ONEWEB-0300,2021-075Q,2026-07-07T09:12:05.600160,13.12441656,.000151,87.8964,346.6407,88.2868,271.8433,0,U,49089,999,23785,-.85026E-3,-.293E-5,0
ONEWEB-0301,2021-075R,2026-07-07T08:48:55.481184,13.12441933,.0001493,87.8961,346.6418,92.5441,267.5858,0,U,49090,999,23721,.46021E-3,.178E-5,0
